{
  "divisions": [
    {
      "code": "DHK",
      "name": "Dhaka",
      "native_name": "ঢাকা",
      "latitude": 23.8103,
      "longitude": 90.4125,
      "sort_order": 1
    },
    {
      "code": "CTG",
      "name": "Chittagong",
      "native_name": "চট্টগ্রাম",
      "latitude": 22.3569,
      "longitude": 91.7832,
      "sort_order": 2
    },
    {
      "code": "RAJ",
      "name": "Rajshahi",
      "native_name": "রাজশাহী",
      "latitude": 24.3745,
      "longitude": 88.6042,
      "sort_order": 3
    },
    {
      "code": "KHU",
      "name": "Khulna",
      "native_name": "খুলনা",
      "latitude": 22.8456,
      "longitude": 89.5403,
      "sort_order": 4
    },
    {
      "code": "BAR",
      "name": "Barishal",
      "native_name": "বরিশাল",
      "latitude": 22.7010,
      "longitude": 90.3535,
      "sort_order": 5
    },
    {
      "code": "SYL",
      "name": "Sylhet",
      "native_name": "সিলেট",
      "latitude": 24.8949,
      "longitude": 91.8687,
      "sort_order": 6
    },
    {
      "code": "RAN",
      "name": "Rangpur",
      "native_name": "রংপুর",
      "latitude": 25.7439,
      "longitude": 89.2752,
      "sort_order": 7
    },
    {
      "code": "MYM",
      "name": "Mymensingh",
      "native_name": "ময়মনসিংহ",
      "latitude": 24.7471,
      "longitude": 90.4203,
      "sort_order": 8
    }
  ]
}